[{"OBJECT_NAME":"STARLINK-2419","OBJECT_ID":"2021-018AV","EPOCH":"2026-03-09T22:07:36.438528","MEAN_MOTION":15.30183402,"ECCENTRICITY":8.302e-5,"INCLINATION":53.1596,"RA_OF_ASC_NODE":254.5564,"ARG_OF_PERICENTER":53.0754,"MEAN_ANOMALY":307.0323,"EPHEMERIS_TYPE":0,"CLASSIFICATION_TYPE":"U","NORAD_CAT_ID":47830,"ELEMENT_SET_NO":999,"REV_AT_EPOCH":27657,"BSTAR":-0.00016869833,"MEAN_MOTION_DOT":-5.349e-5,"MEAN_MOTION_DDOT":0},{"OBJECT_NAME":"ION SCV-017","OBJECT_ID":"2025-052W","EPOCH":"2026-03-09T17:11:44.577024","MEAN_MOTION":15.26881798,"ECCENTRICITY":0.0023746,"INCLINATION":97.4016,"RA_OF_ASC_NODE":324.7516,"ARG_OF_PERICENTER":44.9875,"MEAN_ANOMALY":315.3282,"EPHEMERIS_TYPE":0,"CLASSIFICATION_TYPE":"U","NORAD_CAT_ID":63230,"ELEMENT_SET_NO":999,"REV_AT_EPOCH":5485,"BSTAR":0.00024539061,"MEAN_MOTION_DOT":6.457e-5,"MEAN_MOTION_DDOT":0}]
